STARLINK-36645          
1 67707U 26025Q   26060.89497534  .00156365  00000+0  10291-2 0  9995
2 67707  97.2854 172.0959 0001426  86.0538 274.0890 15.75213869  4719
STARLINK-36287          
1 67708U 26025R   26060.93303571  .00253934  00000+0  12842-2 0  9992
2 67708  97.2865 172.1967 0001238  85.5738 274.5672 15.80884617  4735
STARLINK-36698          
1 67709U 26025S   26060.92611015  .00212923  00000+0  10827-2 0  9991
2 67709  97.2870 172.2053 0001331  97.1840 262.9580 15.80870634  4728
STARLINK-36344          
1 67710U 26025T   26060.93111033 -.00598640  00000+0 -37438-2 0  9991
2 67710  97.2867 172.1987 0002316  46.0340 314.1117 15.78321229  4738
STARLINK-36687          
1 67711U 26025U   26060.92841670  .00213858  00000+0  10872-2 0  9994
2 67711  97.2869 172.2022 0001342 114.7850 245.3558 15.80872953  4731
STARLINK-36705          
1 67712U 26025V   26060.91668981 -.00024855  00000+0 -16611-3 0  9993
2 67712  97.2871 172.1637 0001511  91.6257 143.5434 15.75209579  4664
STARLINK-36708          
1 67713U 26025W   26060.91762364  .00148205  00000+0  75762-3 0  9990
2 67713  97.2872 172.2148 0001350  84.0153 276.1270 15.80924993  4724
STARLINK-36702          
1 67714U 26025X   26060.91956022  .00189829  00000+0  96820-3 0  9992
2 67714  97.2873 172.2122 0000900  78.9659 281.1710 15.80864968  4721
STARLINK-36718          
1 67715U 26025Y   26060.91339048  .00185104  00000+0  94421-3 0  9993
2 67715  97.2871 172.2210 0000957  68.7367 291.4004 15.80875047  4723
STARLINK-36715          
1 67716U 26025Z   26060.91545363  .00215854  00000+0  10969-2 0  9993
2 67716  97.2871 172.2181 0001057  50.0712 310.0649 15.80878209  4727
STARLINK-36385          
1 67717U 26025AA  26060.92170770  .00242761  00000+0  12297-2 0  9994
2 67717  97.2871 172.2100 0000948  79.8382 280.2993 15.80877069  4722
CZ-2F DEB               
1 67718U 26024E   26058.50732833  .00191604  00000+0  35886-2 0  9997
2 67718  50.3169  68.5830 0246509 240.0171 117.6115 15.20915897  3086
