CCSDS_OMM_VERS = 2.0
CREATION_DATE  = 
ORIGINATOR     = 

OBJECT_NAME    = STARLINK-36645
OBJECT_ID      = 2026-025Q
CENTER_NAME    = EARTH
REF_FRAME      = TEME
TIME_SYSTEM    = UTC
MEAN_ELEMENT_THEORY = SGP/SGP4

EPOCH          = 2026-03-01T21:28:45.869376
MEAN_MOTION    = 15.75213869
ECCENTRICITY   = .00014266
INCLINATION    = 97.2854
RA_OF_ASC_NODE = 172.0959
ARG_OF_PERICENTER = 86.0538
MEAN_ANOMALY   = 274.0890

EPHEMERIS_TYPE = 0
CLASSIFICATION_TYPE = U
NORAD_CAT_ID   = 67707
ELEMENT_SET_NO = 999
REV_AT_EPOCH   = 471
BSTAR          = .10290646E-2
MEAN_MOTION_DOT = .156365E-2
MEAN_MOTION_DDOT = 0

CCSDS_OMM_VERS = 2.0
CREATION_DATE  = 
ORIGINATOR     = 

OBJECT_NAME    = STARLINK-36287
OBJECT_ID      = 2026-025R
CENTER_NAME    = EARTH
REF_FRAME      = TEME
TIME_SYSTEM    = UTC
MEAN_ELEMENT_THEORY = SGP/SGP4

EPOCH          = 2026-03-01T22:23:34.285344
MEAN_MOTION    = 15.80884617
ECCENTRICITY   = .00012386
INCLINATION    = 97.2865
RA_OF_ASC_NODE = 172.1967
ARG_OF_PERICENTER = 85.5738
MEAN_ANOMALY   = 274.5672

EPHEMERIS_TYPE = 0
CLASSIFICATION_TYPE = U
NORAD_CAT_ID   = 67708
ELEMENT_SET_NO = 999
REV_AT_EPOCH   = 473
BSTAR          = .12842067E-2
MEAN_MOTION_DOT = .253934E-2
MEAN_MOTION_DDOT = 0

CCSDS_OMM_VERS = 2.0
CREATION_DATE  = 
ORIGINATOR     = 

OBJECT_NAME    = STARLINK-36698
OBJECT_ID      = 2026-025S
CENTER_NAME    = EARTH
REF_FRAME      = TEME
TIME_SYSTEM    = UTC
MEAN_ELEMENT_THEORY = SGP/SGP4

EPOCH          = 2026-03-01T22:13:35.916960
MEAN_MOTION    = 15.80870634
ECCENTRICITY   = .00013317
INCLINATION    = 97.2870
RA_OF_ASC_NODE = 172.2053
ARG_OF_PERICENTER = 97.1840
MEAN_ANOMALY   = 262.9580

EPHEMERIS_TYPE = 0
CLASSIFICATION_TYPE = U
NORAD_CAT_ID   = 67709
ELEMENT_SET_NO = 999
REV_AT_EPOCH   = 472
BSTAR          = .10827279E-2
MEAN_MOTION_DOT = .212923E-2
MEAN_MOTION_DDOT = 0

CCSDS_OMM_VERS = 2.0
CREATION_DATE  = 
ORIGINATOR     = 

OBJECT_NAME    = STARLINK-36344
OBJECT_ID      = 2026-025T
CENTER_NAME    = EARTH
REF_FRAME      = TEME
TIME_SYSTEM    = UTC
MEAN_ELEMENT_THEORY = SGP/SGP4

EPOCH          = 2026-03-01T22:20:47.932512
MEAN_MOTION    = 15.78321229
ECCENTRICITY   = .00023162
INCLINATION    = 97.2867
RA_OF_ASC_NODE = 172.1987
ARG_OF_PERICENTER = 46.0340
MEAN_ANOMALY   = 314.1117

EPHEMERIS_TYPE = 0
CLASSIFICATION_TYPE = U
NORAD_CAT_ID   = 67710
ELEMENT_SET_NO = 999
REV_AT_EPOCH   = 473
BSTAR          = -.37437817E-2
MEAN_MOTION_DOT = -.59864E-2
MEAN_MOTION_DDOT = 0

CCSDS_OMM_VERS = 2.0
CREATION_DATE  = 
ORIGINATOR     = 

OBJECT_NAME    = STARLINK-36687
OBJECT_ID      = 2026-025U
CENTER_NAME    = EARTH
REF_FRAME      = TEME
TIME_SYSTEM    = UTC
MEAN_ELEMENT_THEORY = SGP/SGP4

EPOCH          = 2026-03-01T22:16:55.202880
MEAN_MOTION    = 15.80872953
ECCENTRICITY   = .00013428
INCLINATION    = 97.2869
RA_OF_ASC_NODE = 172.2022
ARG_OF_PERICENTER = 114.7850
MEAN_ANOMALY   = 245.3558

EPHEMERIS_TYPE = 0
CLASSIFICATION_TYPE = U
NORAD_CAT_ID   = 67711
ELEMENT_SET_NO = 999
REV_AT_EPOCH   = 473
BSTAR          = .1087249E-2
MEAN_MOTION_DOT = .213858E-2
MEAN_MOTION_DDOT = 0

CCSDS_OMM_VERS = 2.0
CREATION_DATE  = 
ORIGINATOR     = 

OBJECT_NAME    = STARLINK-36705
OBJECT_ID      = 2026-025V
CENTER_NAME    = EARTH
REF_FRAME      = TEME
TIME_SYSTEM    = UTC
MEAN_ELEMENT_THEORY = SGP/SGP4

EPOCH          = 2026-03-01T22:00:01.999584
MEAN_MOTION    = 15.75209579
ECCENTRICITY   = .00015119
INCLINATION    = 97.2871
RA_OF_ASC_NODE = 172.1637
ARG_OF_PERICENTER = 91.6257
MEAN_ANOMALY   = 143.5434

EPHEMERIS_TYPE = 0
CLASSIFICATION_TYPE = U
NORAD_CAT_ID   = 67712
ELEMENT_SET_NO = 999
REV_AT_EPOCH   = 466
BSTAR          = -.16610856E-3
MEAN_MOTION_DOT = -.24855E-3
MEAN_MOTION_DDOT = 0

CCSDS_OMM_VERS = 2.0
CREATION_DATE  = 
ORIGINATOR     = 

OBJECT_NAME    = STARLINK-36708
OBJECT_ID      = 2026-025W
CENTER_NAME    = EARTH
REF_FRAME      = TEME
TIME_SYSTEM    = UTC
MEAN_ELEMENT_THEORY = SGP/SGP4

EPOCH          = 2026-03-01T22:01:22.682496
MEAN_MOTION    = 15.80924993
ECCENTRICITY   = .00013504
INCLINATION    = 97.2872
RA_OF_ASC_NODE = 172.2148
ARG_OF_PERICENTER = 84.0153
MEAN_ANOMALY   = 276.1270

EPHEMERIS_TYPE = 0
CLASSIFICATION_TYPE = U
NORAD_CAT_ID   = 67713
ELEMENT_SET_NO = 999
REV_AT_EPOCH   = 472
BSTAR          = .75762243E-3
MEAN_MOTION_DOT = .148205E-2
MEAN_MOTION_DDOT = 0

CCSDS_OMM_VERS = 2.0
CREATION_DATE  = 
ORIGINATOR     = 

OBJECT_NAME    = STARLINK-36702
OBJECT_ID      = 2026-025X
CENTER_NAME    = EARTH
REF_FRAME      = TEME
TIME_SYSTEM    = UTC
MEAN_ELEMENT_THEORY = SGP/SGP4

EPOCH          = 2026-03-01T22:04:10.003008
MEAN_MOTION    = 15.80864968
ECCENTRICITY   = .00009007
INCLINATION    = 97.2873
RA_OF_ASC_NODE = 172.2122
ARG_OF_PERICENTER = 78.9659
MEAN_ANOMALY   = 281.1710

EPHEMERIS_TYPE = 0
CLASSIFICATION_TYPE = U
NORAD_CAT_ID   = 67714
ELEMENT_SET_NO = 999
REV_AT_EPOCH   = 472
BSTAR          = .96820272E-3
MEAN_MOTION_DOT = .189829E-2
MEAN_MOTION_DDOT = 0

CCSDS_OMM_VERS = 2.0
CREATION_DATE  = 
ORIGINATOR     = 

OBJECT_NAME    = STARLINK-36718
OBJECT_ID      = 2026-025Y
CENTER_NAME    = EARTH
REF_FRAME      = TEME
TIME_SYSTEM    = UTC
MEAN_ELEMENT_THEORY = SGP/SGP4

EPOCH          = 2026-03-01T21:55:16.937472
MEAN_MOTION    = 15.80875047
ECCENTRICITY   = .00009573
INCLINATION    = 97.2871
RA_OF_ASC_NODE = 172.2210
ARG_OF_PERICENTER = 68.7367
MEAN_ANOMALY   = 291.4004

EPHEMERIS_TYPE = 0
CLASSIFICATION_TYPE = U
NORAD_CAT_ID   = 67715
ELEMENT_SET_NO = 999
REV_AT_EPOCH   = 472
BSTAR          = .94420706E-3
MEAN_MOTION_DOT = .185104E-2
MEAN_MOTION_DDOT = 0

CCSDS_OMM_VERS = 2.0
CREATION_DATE  = 
ORIGINATOR     = 

OBJECT_NAME    = STARLINK-36715
OBJECT_ID      = 2026-025Z
CENTER_NAME    = EARTH
REF_FRAME      = TEME
TIME_SYSTEM    = UTC
MEAN_ELEMENT_THEORY = SGP/SGP4

EPOCH          = 2026-03-01T21:58:15.193632
MEAN_MOTION    = 15.80878209
ECCENTRICITY   = .00010573
INCLINATION    = 97.2871
RA_OF_ASC_NODE = 172.2181
ARG_OF_PERICENTER = 50.0712
MEAN_ANOMALY   = 310.0649

EPHEMERIS_TYPE = 0
CLASSIFICATION_TYPE = U
NORAD_CAT_ID   = 67716
ELEMENT_SET_NO = 999
REV_AT_EPOCH   = 472
BSTAR          = .10968755E-2
MEAN_MOTION_DOT = .215854E-2
MEAN_MOTION_DDOT = 0

CCSDS_OMM_VERS = 2.0
CREATION_DATE  = 
ORIGINATOR     = 

OBJECT_NAME    = STARLINK-36385
OBJECT_ID      = 2026-025AA
CENTER_NAME    = EARTH
REF_FRAME      = TEME
TIME_SYSTEM    = UTC
MEAN_ELEMENT_THEORY = SGP/SGP4

EPOCH          = 2026-03-01T22:07:15.545280
MEAN_MOTION    = 15.80877069
ECCENTRICITY   = .00009488
INCLINATION    = 97.2871
RA_OF_ASC_NODE = 172.2100
ARG_OF_PERICENTER = 79.8382
MEAN_ANOMALY   = 280.2993

EPHEMERIS_TYPE = 0
CLASSIFICATION_TYPE = U
NORAD_CAT_ID   = 67717
ELEMENT_SET_NO = 999
REV_AT_EPOCH   = 472
BSTAR          = .12297399E-2
MEAN_MOTION_DOT = .242761E-2
MEAN_MOTION_DDOT = 0

CCSDS_OMM_VERS = 2.0
CREATION_DATE  = 
ORIGINATOR     = 

OBJECT_NAME    = CZ-2F DEB
OBJECT_ID      = 2026-024E
CENTER_NAME    = EARTH
REF_FRAME      = TEME
TIME_SYSTEM    = UTC
MEAN_ELEMENT_THEORY = SGP/SGP4

EPOCH          = 2026-02-27T12:10:33.167712
MEAN_MOTION    = 15.20915897
ECCENTRICITY   = .02465096
INCLINATION    = 50.3169
RA_OF_ASC_NODE = 68.5830
ARG_OF_PERICENTER = 240.0171
MEAN_ANOMALY   = 117.6115

EPHEMERIS_TYPE = 0
CLASSIFICATION_TYPE = U
NORAD_CAT_ID   = 67718
ELEMENT_SET_NO = 999
REV_AT_EPOCH   = 308
BSTAR          = .35886422E-2
MEAN_MOTION_DOT = .191604E-2
MEAN_MOTION_DDOT = 0

